KUIPER-00079            
1 64826U 25151L   25297.72570712  .00005616  00000+0  76409-3 0  9992
2 64826  51.8980 181.5051 0012671 146.1945 213.9828 14.79957625 16372
KUIPER-00080            
1 64827U 25151M   25297.65353992 -.00003096  00000+0 -37718-3 0  9996
2 64827  51.9015 182.1253 0005540 163.3777 196.7367 14.79913565 15162
KUIPER-00082            
1 64828U 25151N   25297.83336806 -.00033515  00000+0 -36987-2 0  9997
2 64828  51.8972 168.9899 0004895 183.7134  78.4180 14.86979451  2683
KUIPER-00083            
1 64829U 25151P   25297.69274007  .00005892  00000+0  80062-3 0  9995
2 64829  51.8996 176.9575 0010851 152.3661 207.7880 14.79942447 16424
KUIPER-00084            
1 64830U 25151Q   25297.00681635  .00006302  00000+0  85395-3 0  9992
2 64830  51.8985 189.9795 0012060 123.2775 236.9344 14.79949251 14998
KUIPER-00085            
1 64831U 25151R   25297.83336806 -.00978628  00000+0 -10786+0 0  9990
2 64831  51.9077 169.0593 0008360 149.5861 291.0936 14.90038954  4824
KUIPER-00086            
1 64832U 25151S   25297.38620361  .00003901  00000+0  53991-3 0  9993
2 64832  51.8992 180.8114 0011619 144.4564 215.7174 14.79956012 15151
KUIPER-00087            
1 64833U 25151T   25297.83336806 -.01068483  00000+0 -63493-1 0  9997
2 64833  51.8828 164.2144 0004314 180.4013 265.6689 15.13556873  2322
